GLOBALSTAR M094 [+]     
1 39074U 13005C   23251.45155139 -.00000092  00000+0  63485-4 0  9999
2 39074  51.9989 354.2832 0000444  96.9902 263.1015 12.62267151490576
GLOBALSTAR M096 [+]     
1 39075U 13005D   23251.54377686 -.00000100  00000+0  18592-4 0  9992
2 39075  52.0086  42.0070 0000440  86.1210 273.9707 12.62268238489507
GLOBALSTAR M078 [+]     
1 39076U 13005E   23251.04199961 -.00000143  00000+0 -22002-3 0  9994
2 39076  51.9866 128.9258 0000877 147.5117 212.5804 12.62270536488067
GLOBALSTAR M095 [+]     
1 39077U 13005F   23250.98974180 -.00000095  00000+0  46763-4 0  9997
2 39077  51.9790 126.6078 0000262 142.4074 217.6811 12.62268579487914
GLOBALSTAR M087 [+]     
1 52888U 22064A   23250.98164998 -.00000103  00000+0  47430-4 0  9997
2 52888  51.9751 115.8885 0009773  10.0025 350.1069 13.37552135 59622
